[{"OBJECT_NAME":"ONEWEB-0400","OBJECT_ID":"2021-132M","EPOCH":"2026-03-09T20:07:00.465312","MEAN_MOTION":13.18686798,"ECCENTRICITY":0.00019702,"INCLINATION":87.9252,"RA_OF_ASC_NODE":355.1736,"ARG_OF_PERICENTER":77.7422,"MEAN_ANOMALY":282.3931,"EPHEMERIS_TYPE":0,"CLASSIFICATION_TYPE":"U","NORAD_CAT_ID":50480,"ELEMENT_SET_NO":999,"REV_AT_EPOCH":20851,"BSTAR":8.7639317e-5,"MEAN_MOTION_DOT":4.7e-7,"MEAN_MOTION_DDOT":0},{"OBJECT_NAME":"FENGYUN 1C DEB","OBJECT_ID":"1999-025EYP","EPOCH":"2026-03-09T19:09:01.653984","MEAN_MOTION":13.40635008,"ECCENTRICITY":0.03603046,"INCLINATION":98.6854,"RA_OF_ASC_NODE":181.6853,"ARG_OF_PERICENTER":342.634,"MEAN_ANOMALY":16.2727,"EPHEMERIS_TYPE":0,"CLASSIFICATION_TYPE":"U","NORAD_CAT_ID":43358,"ELEMENT_SET_NO":999,"REV_AT_EPOCH":54897,"BSTAR":0.0017721435,"MEAN_MOTION_DOT":1.389e-5,"MEAN_MOTION_DDOT":0}]
